IRIDIUM 57 [-]          
1 25273U 98019B   24098.86762630  .00000348  00000+0  11497-3 0  9996
2 25273  86.3965 327.5941 0002170  88.0083 272.1362 14.35142103362330
IRIDIUM 63 [-]          
1 25286U 98021B   24098.91794753  .00000481  00000+0  16000-3 0  9993
2 25286  86.3936 264.4464 0001902  95.0011 265.1402 14.35668130361375
IRIDIUM 69 [-]          
1 25319U 98026A   24098.91434481  .00000609  00000+0  18769-3 0  9990
2 25319  86.3922 279.0592 0003529  52.3992 307.7526 14.39871253360401
IRIDIUM 71 [-]          
1 25320U 98026B   24098.92987152  .00000540  00000+0  16474-3 0  9996
2 25320  86.3922 273.8239 0004211  86.9743 273.1938 14.40195653360924
IRIDIUM 73 [-]          
1 25344U 98032C   24098.86654639  .00000745  00000+0  18566-3 0  9994
2 25344  86.4437 231.3678 0002372  80.2303 279.9169 14.50399467367436
IRIDIUM 82 [-]          
1 25467U 98051A   24098.85799214  .00010137  00000+0  53151-3 0  9994
2 25467  86.3787 319.1022 0134673 118.4163 243.0724 15.07979898357887
IRIDIUM 2 [-]           
1 25527U 98066A   24098.95440024  .00087011  00000+0  89204-3 0  9993
2 25527  85.5120 348.6886 0003131 129.0412 231.1133 15.64662886396862
